[{"OBJECT_NAME":"CUTE-1.7+APD II (CO-65)","OBJECT_ID":"2008-021C","EPOCH":"2026-03-09T21:54:04.726080","MEAN_MOTION":15.08376872,"ECCENTRICITY":0.00096053,"INCLINATION":97.8207,"RA_OF_ASC_NODE":48.3884,"ARG_OF_PERICENTER":18.7003,"MEAN_ANOMALY":341.4575,"EPHEMERIS_TYPE":0,"CLASSIFICATION_TYPE":"U","NORAD_CAT_ID":32785,"ELEMENT_SET_NO":999,"REV_AT_EPOCH":97022,"BSTAR":0.00047295391,"MEAN_MOTION_DOT":7.295e-5,"MEAN_MOTION_DDOT":0},{"OBJECT_NAME":"STARLINK-5237","OBJECT_ID":"2022-141AR","EPOCH":"2026-03-08T23:43:12.359136","MEAN_MOTION":15.08834766,"ECCENTRICITY":0.00012983,"INCLINATION":53.2195,"RA_OF_ASC_NODE":357.1519,"ARG_OF_PERICENTER":106.034,"MEAN_ANOMALY":254.0795,"EPHEMERIS_TYPE":0,"CLASSIFICATION_TYPE":"U","NORAD_CAT_ID":54196,"ELEMENT_SET_NO":999,"REV_AT_EPOCH":18589,"BSTAR":-2.0420605e-5,"MEAN_MOTION_DOT":-6.13e-6,"MEAN_MOTION_DDOT":0}]
